{
  "type": "FeatureCollection",
  "features": [
    {
      "type": "Feature",
      "id": "veg-1785229964409-6hktrw",
      "geometry": {
        "type": "Polygon",
        "coordinates": [
          [
            [
              -73.99208628218274,
              40.763530263547445
            ],
            [
              -73.99194574882924,
              40.76361322530993
            ],
            [
              -73.99193510784482,
              40.76362665554711
            ],
            [
              -73.99182001231702,
              40.76358260580445
            ],
            [
              -73.99175100256177,
              40.7635449330457
            ],
            [
              -73.99170595783413,
              40.76345915043103
            ],
            [
              -73.99161978293718,
              40.76343309132316
            ],
            [
              -73.99156423949606,
              40.763403271944156
            ],
            [
              -73.99159402637856,
              40.76334735203908
            ],
            [
              -73.9915027768769,
              40.763299792744256
            ],
            [
              -73.99137068450874,
              40.76327185005247
            ],
            [
              -73.99134616322057,
              40.76327680758944
            ],
            [
              -73.99117802401254,
              40.76325222708681
            ],
            [
              -73.99115848013352,
              40.763272465955986
            ],
            [
              -73.99108446590533,
              40.76323412996201
            ],
            [
              -73.99103620151276,
              40.763224246421835
            ],
            [
              -73.99108717377695,
              40.7632353621306
            ],
            [
              -73.99104638189102,
              40.76321684121925
            ],
            [
              -73.99088510083818,
              40.76316467847403
            ],
            [
              -73.99087542713977,
              40.76313700779696
            ],
            [
              -73.99085895384428,
              40.763117935005305
            ],
            [
              -73.99086552406916,
              40.76309311891621
            ],
            [
              -73.9907669959648,
              40.76305017076725
            ],
            [
              -73.99077766525478,
              40.763039842497065
            ],
            [
              -73.99072135670906,
              40.763032643674705
            ],
            [
              -73.99066187548212,
              40.76306155313094
            ],
            [
              -73.99056911396204,
              40.763051068425234
            ],
            [
              -73.99060740374138,
              40.76302975932095
            ],
            [
              -73.99049309724377,
              40.7629974545008
            ],
            [
              -73.99055781629657,
              40.763020342377985
            ],
            [
              -73.99047622470557,
              40.76298949982397
            ],
            [
              -73.99046888733284,
              40.76294330655739
            ],
            [
              -73.99044444811983,
              40.76290647763565
            ],
            [
              -73.99035299083418,
              40.76290354177068
            ],
            [
              -73.99037440440867,
              40.76286901558777
            ],
            [
              -73.99034358799739,
              40.762850918384814
            ],
            [
              -73.99034677623807,
              40.76283116296513
            ],
            [
              -73.9903735713907,
              40.76282249760119
            ],
            [
              -73.99045091357699,
              40.762857552924125
            ],
            [
              -73.9904857011355,
              40.762862090714066
            ],
            [
              -73.99056770369502,
              40.76289361008971
            ],
            [
              -73.99061645774843,
              40.762909633123634
            ],
            [
              -73.99067228221463,
              40.76291931454599
            ],
            [
              -73.9907121104534,
              40.76290761632394
            ],
            [
              -73.99072886175111,
              40.762890773433206
            ],
            [
              -73.99081387406822,
              40.76292676357154
            ],
            [
              -73.99091817275138,
              40.7629490965291
            ],
            [
              -73.99097400457835,
              40.76299457517864
            ],
            [
              -73.99097348972779,
              40.763043352967145
            ],
            [
              -73.99103069914739,
              40.76304812275059
            ],
            [
              -73.9911617312337,
              40.76311632869347
            ],
            [
              -73.99132173654726,
              40.76315411264697
            ],
            [
              -73.99136658092057,
              40.76314093056944
            ],
            [
              -73.99137976203968,
              40.76321369179386
            ],
            [
              -73.99146186450757,
              40.763220828952065
            ],
            [
              -73.99154338039192,
              40.76327919412795
            ],
            [
              -73.9916213021099,
              40.76327314838906
            ],
            [
              -73.99167165907822,
              40.76329279267672
            ],
            [
              -73.99173784018824,
              40.76333488856202
            ],
            [
              -73.99189690607693,
              40.76341421859006
            ],
            [
              -73.99192685179452,
              40.76340757736058
            ],
            [
              -73.99192284359683,
              40.76339985849727
            ],
            [
              -73.99202630320967,
              40.76345013611511
            ],
            [
              -73.9920404794758,
              40.76348462796378
            ],
            [
              -73.99205907737239,
              40.763566168967344
            ],
            [
              -73.9920310485523,
              40.763614868481895
            ],
            [
              -73.99208628218274,
              40.763530263547445
            ]
          ]
        ]
      },
      "properties": {
        "type": "manual_vegetation",
        "name": "Vegetation 1",
        "source": "manual",
        "confidence": 1,
        "createdAt": 1785229964409,
        "updatedAt": 1785229964409,
        "areaM2": 2209.705078125
      }
    },
    {
      "type": "Feature",
      "id": "veg-1785229989123-qs9ufz",
      "geometry": {
        "type": "Polygon",
        "coordinates": [
          [
            [
              -73.99241541447526,
              40.76278475266673
            ],
            [
              -73.99227899810721,
              40.762886718187694
            ],
            [
              -73.99218451655375,
              40.762840298886864
            ],
            [
              -73.9920435825832,
              40.76280418269376
            ],
            [
              -73.99195171663636,
              40.762771075470475
            ],
            [
              -73.99177028881859,
              40.76272747982544
            ],
            [
              -73.9916418078918,
              40.7626270129997
            ],
            [
              -73.99160591113102,
              40.76254977543295
            ],
            [
              -73.99160107531391,
              40.762482852449715
            ],
            [
              -73.99166930330242,
              40.76244826281956
            ],
            [
              -73.99176849875712,
              40.7625049922843
            ],
            [
              -73.99191030202384,
              40.762565941242585
            ],
            [
              -73.99200412312274,
              40.762610334469535
            ],
            [
              -73.99208891809955,
              40.76264668934075
            ],
            [
              -73.99220494282908,
              40.76270340623529
            ],
            [
              -73.992316505719,
              40.76274150170656
            ],
            [
              -73.99235435076665,
              40.762768828107035
            ],
            [
              -73.99237890396232,
              40.76279810609871
            ],
            [
              -73.99229105962938,
              40.762831245868725
            ],
            [
              -73.99228442197351,
              40.76283955215113
            ],
            [
              -73.99241541447526,
              40.76278475266673
            ]
          ]
        ]
      },
      "properties": {
        "type": "manual_vegetation",
        "name": "Vegetation 2",
        "source": "manual",
        "confidence": 1,
        "createdAt": 1785229989123,
        "updatedAt": 1785229989123,
        "areaM2": 1229.015625
      }
    },
    {
      "type": "Feature",
      "id": "veg-1785230106889-pwku6f",
      "geometry": {
        "type": "Polygon",
        "coordinates": [
          [
            [
              -73.9930885446483,
              40.76226687263882
            ],
            [
              -73.99299924450753,
              40.762394717278056
            ],
            [
              -73.99289830062126,
              40.76245667448078
            ],
            [
              -73.99279995914198,
              40.76229877687265
            ],
            [
              -73.99249759989188,
              40.76212789878044
            ],
            [
              -73.99224396609877,
              40.76207720016795
            ],
            [
              -73.99207837074998,
              40.76202438047986
            ],
            [
              -73.99210005440547,
              40.76200656534513
            ],
            [
              -73.99193133109199,
              40.761905457711066
            ],
            [
              -73.99182874764273,
              40.761847780865594
            ],
            [
              -73.99180498196651,
              40.76180770988333
            ],
            [
              -73.99202029566638,
              40.76183958692406
            ],
            [
              -73.99207892560577,
              40.76186360752799
            ],
            [
              -73.99216947763064,
              40.761904629296176
            ],
            [
              -73.99223904865553,
              40.76189528575577
            ],
            [
              -73.99233168794457,
              40.76191808895193
            ],
            [
              -73.99236815793914,
              40.76196229068447
            ],
            [
              -73.99242361601935,
              40.762018931889195
            ],
            [
              -73.9930885446483,
              40.76226687263882
            ]
          ]
        ]
      },
      "properties": {
        "type": "manual_vegetation",
        "name": "Vegetation 3",
        "source": "manual",
        "confidence": 1,
        "createdAt": 1785230106889,
        "updatedAt": 1785230106889,
        "areaM2": 1544.265625
      }
    },
    {
      "type": "Feature",
      "id": "veg-1785230125125-dv8g32",
      "geometry": {
        "type": "Polygon",
        "coordinates": [
          [
            [
              -73.99260840386137,
              40.76127281969927
            ],
            [
              -73.99251346129799,
              40.76135213725851
            ],
            [
              -73.99234006428702,
              40.761289991732376
            ],
            [
              -73.99230278880027,
              40.761222621626516
            ],
            [
              -73.99219593701598,
              40.76117086582594
            ],
            [
              -73.99206508580488,
              40.761133835631504
            ],
            [
              -73.99201215189777,
              40.76108184523758
            ],
            [
              -73.99204740154046,
              40.761015863561454
            ],
            [
              -73.99212953708243,
              40.76106656192065
            ],
            [
              -73.9922256232356,
              40.76110977010952
            ],
            [
              -73.99233755575696,
              40.761157617150836
            ],
            [
              -73.99244127623764,
              40.76120473118288
            ],
            [
              -73.99260840386137,
              40.76127281969927
            ]
          ]
        ]
      },
      "properties": {
        "type": "manual_vegetation",
        "name": "Vegetation 4",
        "source": "manual",
        "confidence": 1,
        "createdAt": 1785230125125,
        "updatedAt": 1785230125125,
        "areaM2": 509.841796875
      }
    },
    {
      "type": "Feature",
      "id": "veg-1785230157232-w4pd9d",
      "geometry": {
        "type": "Polygon",
        "coordinates": [
          [
            [
              -73.99106818860065,
              40.76227387725045
            ],
            [
              -73.9909764828349,
              40.762401604115844
            ],
            [
              -73.99087820764707,
              40.762350958030616
            ],
            [
              -73.9909933095854,
              40.76229950643448
            ],
            [
              -73.9910284282113,
              40.76223534013932
            ],
            [
              -73.99093280784105,
              40.76221056234052
            ],
            [
              -73.99077498772614,
              40.7622362826101
            ],
            [
              -73.99070143955187,
              40.76220283071805
            ],
            [
              -73.99053424936125,
              40.762139329529354
            ],
            [
              -73.99067833427692,
              40.76209771232479
            ],
            [
              -73.99082800374329,
              40.762156787844674
            ],
            [
              -73.99102359090092,
              40.76225760462177
            ],
            [
              -73.99099217637975,
              40.76237848197192
            ],
            [
              -73.99106818860065,
              40.76227387725045
            ]
          ]
        ]
      },
      "properties": {
        "type": "manual_vegetation",
        "name": "Vegetation 5",
        "source": "manual",
        "confidence": 1,
        "createdAt": 1785230157232,
        "updatedAt": 1785230157232,
        "areaM2": 291.0234375
      }
    },
    {
      "type": "Feature",
      "id": "veg-1785230183289-bey0dw",
      "geometry": {
        "type": "Polygon",
        "coordinates": [
          [
            [
              -73.99134257007888,
              40.761625403789154
            ],
            [
              -73.99132912994294,
              40.76161936709331
            ],
            [
              -73.99128783004342,
              40.76163683708087
            ],
            [
              -73.99134807452373,
              40.76144684369465
            ],
            [
              -73.99137385774031,
              40.76148193030867
            ],
            [
              -73.99129195885067,
              40.76144889694866
            ],
            [
              -73.99120713254212,
              40.76138669582778
            ],
            [
              -73.99110182735372,
              40.76136695742987
            ],
            [
              -73.99122222663405,
              40.76145921121132
            ],
            [
              -73.99108576744153,
              40.76147317844526
            ],
            [
              -73.99117728780799,
              40.76147733324839
            ],
            [
              -73.99106973481646,
              40.76151092857911
            ],
            [
              -73.99108841084266,
              40.76141912614613
            ],
            [
              -73.99100040916382,
              40.7613960044548
            ],
            [
              -73.9909420379461,
              40.76132473627949
            ],
            [
              -73.990994726431,
              40.76130234869297
            ],
            [
              -73.99105028456702,
              40.7613032597595
            ],
            [
              -73.99105317522613,
              40.76137916816615
            ],
            [
              -73.99094486633876,
              40.761459178846366
            ],
            [
              -73.99092794540354,
              40.761533712108125
            ],
            [
              -73.9910028636176,
              40.76153217505966
            ],
            [
              -73.99134257007888,
              40.761625403789154
            ]
          ]
        ]
      },
      "properties": {
        "type": "manual_vegetation",
        "name": "Vegetation 6",
        "source": "manual",
        "confidence": 1,
        "createdAt": 1785230183289,
        "updatedAt": 1785230183289,
        "areaM2": 397.9609375
      }
    },
    {
      "type": "Feature",
      "id": "veg-1785230203754-9x1rxa",
      "geometry": {
        "type": "Polygon",
        "coordinates": [
          [
            [
              -73.99171391286451,
              40.760973377432734
            ],
            [
              -73.99169627804295,
              40.76092364556839
            ],
            [
              -73.99166221371115,
              40.7608766179215
            ],
            [
              -73.99152241106987,
              40.760865061208925
            ],
            [
              -73.99144770021249,
              40.760879699176755
            ],
            [
              -73.99159538992154,
              40.76094146952554
            ],
            [
              -73.99154296130651,
              40.76095989066464
            ],
            [
              -73.99164438256146,
              40.76094442843056
            ],
            [
              -73.99171391286451,
              40.760973377432734
            ]
          ]
        ]
      },
      "properties": {
        "type": "manual_vegetation",
        "name": "Vegetation 7",
        "source": "manual",
        "confidence": 1,
        "createdAt": 1785230203754,
        "updatedAt": 1785230203754,
        "areaM2": 127.392578125
      }
    },
    {
      "type": "Feature",
      "id": "veg-1785230230506-046dqp",
      "geometry": {
        "type": "Polygon",
        "coordinates": [
          [
            [
              -73.99309342892333,
              40.760230689467825
            ],
            [
              -73.9929784447271,
              40.76018763072315
            ],
            [
              -73.99287138744452,
              40.760139454640886
            ],
            [
              -73.99265372271367,
              40.76004432243006
            ],
            [
              -73.99248216419606,
              40.75998100119584
            ],
            [
              -73.99222366025367,
              40.75986822803021
            ],
            [
              -73.99204675736506,
              40.7598646161411
            ],
            [
              -73.99202917905478,
              40.75997318285485
            ],
            [
              -73.99216394996473,
              40.76005804314863
            ],
            [
              -73.99232420200451,
              40.76010163249789
            ],
            [
              -73.99233753866429,
              40.7601036123749
            ],
            [
              -73.99244834966804,
              40.76016798588131
            ],
            [
              -73.9928122230252,
              40.7602622463666
            ],
            [
              -73.99242033825229,
              40.76014559166154
            ],
            [
              -73.99289261221467,
              40.76019699797127
            ],
            [
              -73.99304802613928,
              40.76020379630868
            ],
            [
              -73.99309342892333,
              40.760230689467825
            ]
          ]
        ]
      },
      "properties": {
        "type": "manual_vegetation",
        "name": "Vegetation 8",
        "source": "manual",
        "confidence": 1,
        "createdAt": 1785230230506,
        "updatedAt": 1785230230506,
        "areaM2": 1242.72265625
      }
    },
    {
      "type": "Feature",
      "id": "veg-1785230251887-nwq8d3",
      "geometry": {
        "type": "Polygon",
        "coordinates": [
          [
            [
              -73.99335251692939,
              40.76154602694633
            ],
            [
              -73.99330632989252,
              40.761523308595336
            ],
            [
              -73.9931521029719,
              40.76151798252718
            ],
            [
              -73.99315565213793,
              40.76167604089646
            ],
            [
              -73.99331448571941,
              40.76168085348955
            ],
            [
              -73.99324747304492,
              40.76144879044749
            ],
            [
              -73.99325580869008,
              40.761379669842185
            ],
            [
              -73.99335251692939,
              40.76154602694633
            ]
          ]
        ]
      },
      "properties": {
        "type": "manual_vegetation",
        "name": "Vegetation 9",
        "source": "manual",
        "confidence": 1,
        "createdAt": 1785230251887,
        "updatedAt": 1785230251887,
        "areaM2": 143.146484375
      }
    },
    {
      "type": "Feature",
      "id": "veg-1785230273980-27qqvz",
      "geometry": {
        "type": "Polygon",
        "coordinates": [
          [
            [
              -73.99388560150895,
              40.76115970073677
            ],
            [
              -73.99394465707566,
              40.76104538152175
            ],
            [
              -73.99391585807383,
              40.76104717376721
            ],
            [
              -73.9937725451723,
              40.760989568606675
            ],
            [
              -73.99361687584444,
              40.76091046606319
            ],
            [
              -73.99356061903404,
              40.76093318707429
            ],
            [
              -73.99362345240928,
              40.76097690430182
            ],
            [
              -73.99365994102133,
              40.76104492979073
            ],
            [
              -73.99374585306178,
              40.761014411708935
            ],
            [
              -73.99367320337292,
              40.76104385438813
            ],
            [
              -73.99368988365983,
              40.76106272309341
            ],
            [
              -73.99387607365814,
              40.76115071372662
            ],
            [
              -73.99390549155233,
              40.76110500255199
            ],
            [
              -73.99388560150895,
              40.76115970073677
            ]
          ]
        ]
      },
      "properties": {
        "type": "manual_vegetation",
        "name": "Vegetation 10",
        "source": "manual",
        "confidence": 1,
        "createdAt": 1785230273980,
        "updatedAt": 1785230273980,
        "areaM2": 320.658203125
      }
    },
    {
      "type": "Feature",
      "id": "veg-1785230582658-xfho0k",
      "geometry": {
        "type": "Polygon",
        "coordinates": [
          [
            [
              -73.99607284267272,
              40.76182003652008
            ],
            [
              -73.99592981863275,
              40.762023605193235
            ],
            [
              -73.99592066181063,
              40.762036479672894
            ],
            [
              -73.9959456919634,
              40.76196108252609
            ],
            [
              -73.99578284614307,
              40.761970627293316
            ],
            [
              -73.99565318290966,
              40.76188493179637
            ],
            [
              -73.99553153009307,
              40.761855850942545
            ],
            [
              -73.99543892603046,
              40.76179749107639
            ],
            [
              -73.99524763023099,
              40.76173952112265
            ],
            [
              -73.99508416542412,
              40.76162241590327
            ],
            [
              -73.99508641593147,
              40.7616196034646
            ],
            [
              -73.99503266000922,
              40.76161471962859
            ],
            [
              -73.99500023342209,
              40.7615631366945
            ],
            [
              -73.99518286773201,
              40.76149405715778
            ],
            [
              -73.99517304253622,
              40.76158241040586
            ],
            [
              -73.99515655496117,
              40.761616387609855
            ],
            [
              -73.99607284267272,
              40.76182003652008
            ]
          ]
        ]
      },
      "properties": {
        "type": "manual_vegetation",
        "name": "Vegetation 11",
        "source": "manual",
        "confidence": 1,
        "createdAt": 1785230582658,
        "updatedAt": 1785230582658,
        "areaM2": 1370.775390625
      }
    },
    {
      "type": "Feature",
      "id": "veg-1785230622838-3se02t",
      "geometry": {
        "type": "Polygon",
        "coordinates": [
          [
            [
              -73.99481444050635,
              40.76307995988692
            ],
            [
              -73.99466529732418,
              40.76293863445738
            ],
            [
              -73.99460556213843,
              40.762962878353214
            ],
            [
              -73.99440053976475,
              40.76287153039694
            ],
            [
              -73.99437715841198,
              40.7629170760551
            ],
            [
              -73.9943328605916,
              40.76299292780279
            ],
            [
              -73.99454670599819,
              40.763049701168434
            ],
            [
              -73.99464482287506,
              40.763090247063374
            ],
            [
              -73.9947259344191,
              40.763107306712314
            ],
            [
              -73.99466094014545,
              40.76308081845361
            ],
            [
              -73.9947132829232,
              40.76307131737359
            ],
            [
              -73.99481444050635,
              40.76307995988692
            ]
          ]
        ]
      },
      "properties": {
        "type": "manual_vegetation",
        "name": "Vegetation 12",
        "source": "manual",
        "confidence": 1,
        "createdAt": 1785230622838,
        "updatedAt": 1785230622838,
        "areaM2": 450.060546875
      }
    },
    {
      "type": "Feature",
      "id": "veg-1785230690334-anyony",
      "geometry": {
        "type": "Polygon",
        "coordinates": [
          [
            [
              -73.99489154419528,
              40.763938918836054
            ],
            [
              -73.99486129210234,
              40.76397678894028
            ],
            [
              -73.994801215459,
              40.76398083435672
            ],
            [
              -73.99461826889942,
              40.76387915533305
            ],
            [
              -73.99450692050642,
              40.76386393744235
            ],
            [
              -73.99439031031713,
              40.76383114681717
            ],
            [
              -73.9943349814205,
              40.76380700116518
            ],
            [
              -73.9942806255705,
              40.76372618551507
            ],
            [
              -73.99405040674951,
              40.76369794871767
            ],
            [
              -73.99401114495944,
              40.7636572791865
            ],
            [
              -73.99390019547384,
              40.763588924546056
            ],
            [
              -73.99373987768496,
              40.76355648587119
            ],
            [
              -73.99357025381008,
              40.76350797191021
            ],
            [
              -73.99352833220081,
              40.76348960742502
            ],
            [
              -73.99358458746396,
              40.763436058474085
            ],
            [
              -73.99360912622596,
              40.763379693020624
            ],
            [
              -73.9936842651124,
              40.763333212595185
            ],
            [
              -73.99383405125545,
              40.76339200764762
            ],
            [
              -73.99387794469831,
              40.76350749854891
            ],
            [
              -73.99400888881722,
              40.76361202475188
            ],
            [
              -73.99407209099132,
              40.763595282713986
            ],
            [
              -73.99418920558959,
              40.76361881093205
            ],
            [
              -73.99438631289748,
              40.763698363287105
            ],
            [
              -73.99457091781966,
              40.7637749485347
            ],
            [
              -73.99462995709686,
              40.763834944144534
            ],
            [
              -73.99464931765925,
              40.76378544959604
            ],
            [
              -73.99486184613697,
              40.76395227894536
            ],
            [
              -73.99483935089526,
              40.76400517922018
            ],
            [
              -73.99489154419528,
              40.763938918836054
            ]
          ]
        ]
      },
      "properties": {
        "type": "manual_vegetation",
        "name": "Vegetation 13",
        "source": "manual",
        "confidence": 1,
        "createdAt": 1785230690334,
        "updatedAt": 1785230690334,
        "areaM2": 1329.419921875
      }
    },
    {
      "type": "Feature",
      "id": "veg-1785230719782-g9q01s",
      "geometry": {
        "type": "Polygon",
        "coordinates": [
          [
            [
              -73.9942129721427,
              40.76526592626913
            ],
            [
              -73.994138029482,
              40.765306873966
            ],
            [
              -73.99401519812278,
              40.76530033532029
            ],
            [
              -73.99392443988128,
              40.765263968533915
            ],
            [
              -73.9940133426088,
              40.765205436253005
            ],
            [
              -73.9937909625264,
              40.765137329870235
            ],
            [
              -73.9937137885028,
              40.765100914026576
            ],
            [
              -73.99369956962066,
              40.76516902172248
            ],
            [
              -73.9936105002197,
              40.76512350114078
            ],
            [
              -73.99364186985778,
              40.76502959912672
            ],
            [
              -73.99358014470452,
              40.76506659537647
            ],
            [
              -73.99344724100852,
              40.76500075755571
            ],
            [
              -73.99358188276359,
              40.76503995604408
            ],
            [
              -73.99358656609695,
              40.76504187469841
            ],
            [
              -73.99317042627621,
              40.764899118765115
            ],
            [
              -73.99297643014859,
              40.76485074645755
            ],
            [
              -73.99298051310052,
              40.76478606915511
            ],
            [
              -73.99304428045608,
              40.764725741694086
            ],
            [
              -73.99310658091647,
              40.7647452523777
            ],
            [
              -73.99307495632046,
              40.764734675722586
            ],
            [
              -73.99330542766116,
              40.7648185235239
            ],
            [
              -73.9934734358811,
              40.76489738251623
            ],
            [
              -73.99335707600532,
              40.764830052758406
            ],
            [
              -73.99350717064586,
              40.764920965616085
            ],
            [
              -73.99351072559432,
              40.764904512456916
            ],
            [
              -73.99395349254812,
              40.7651480928
            ],
            [
              -73.99395903283123,
              40.765145746622835
            ],
            [
              -73.9942129721427,
              40.76526592626913
            ]
          ]
        ]
      },
      "properties": {
        "type": "manual_vegetation",
        "name": "Vegetation 14",
        "source": "manual",
        "confidence": 1,
        "createdAt": 1785230719782,
        "updatedAt": 1785230719782,
        "areaM2": 1216.78515625
      }
    },
    {
      "type": "Feature",
      "id": "veg-1785230782786-u7uzwr",
      "geometry": {
        "type": "Polygon",
        "coordinates": [
          [
            [
              -73.99169829666343,
              40.76409954426332
            ],
            [
              -73.99158498815562,
              40.764235490641695
            ],
            [
              -73.99163780162347,
              40.76420283619035
            ],
            [
              -73.99154695562764,
              40.76431968047444
            ],
            [
              -73.99145487989526,
              40.76426551679033
            ],
            [
              -73.991505199598,
              40.76420421717234
            ],
            [
              -73.99139084530425,
              40.76414972223994
            ],
            [
              -73.99122725898903,
              40.764109306965864
            ],
            [
              -73.99126404055136,
              40.7640405974847
            ],
            [
              -73.99138907463221,
              40.764045078871085
            ],
            [
              -73.9914513714938,
              40.76403550939471
            ],
            [
              -73.99155471863199,
              40.76410853057846
            ],
            [
              -73.99160758035002,
              40.7641382765383
            ],
            [
              -73.9916862920852,
              40.76411534545223
            ],
            [
              -73.99168655259473,
              40.76413237380401
            ],
            [
              -73.99169829666343,
              40.76409954426332
            ]
          ]
        ]
      },
      "properties": {
        "type": "manual_vegetation",
        "name": "Vegetation 15",
        "source": "manual",
        "confidence": 1,
        "createdAt": 1785230782786,
        "updatedAt": 1785230782786,
        "areaM2": 485.455078125
      }
    },
    {
      "type": "Feature",
      "id": "veg-1785230818074-uddmrl",
      "geometry": {
        "type": "Polygon",
        "coordinates": [
          [
            [
              -73.99118594749287,
              40.76471725521043
            ],
            [
              -73.99102575825522,
              40.7648839185493
            ],
            [
              -73.99080344874218,
              40.764812159785336
            ],
            [
              -73.99078930961647,
              40.764711056708535
            ],
            [
              -73.99059758121855,
              40.76465762230049
            ],
            [
              -73.99063806911616,
              40.76455988986746
            ],
            [
              -73.99074631602501,
              40.76451996033475
            ],
            [
              -73.99090920548748,
              40.764582733860934
            ],
            [
              -73.99095202034611,
              40.76461244417718
            ],
            [
              -73.99100913681188,
              40.76466332069153
            ],
            [
              -73.99115908154421,
              40.764720299683425
            ],
            [
              -73.99118594749287,
              40.76471725521043
            ]
          ]
        ]
      },
      "properties": {
        "type": "manual_vegetation",
        "name": "Vegetation 16",
        "source": "manual",
        "confidence": 1,
        "createdAt": 1785230818074,
        "updatedAt": 1785230818074,
        "areaM2": 945.93359375
      }
    },
    {
      "type": "Feature",
      "id": "veg-1785230836360-2aeud4",
      "geometry": {
        "type": "Polygon",
        "coordinates": [
          [
            [
              -73.98993651411541,
              40.76428588618976
            ],
            [
              -73.98989024846581,
              40.764339864737934
            ],
            [
              -73.98968274047128,
              40.764310432713806
            ],
            [
              -73.98957294892534,
              40.764275189360966
            ],
            [
              -73.98957485899932,
              40.76427261583771
            ],
            [
              -73.9897320975796,
              40.764151621726185
            ],
            [
              -73.98958873392193,
              40.764114915954366
            ],
            [
              -73.98964344672945,
              40.76402570249241
            ],
            [
              -73.98971700453698,
              40.76405927888314
            ],
            [
              -73.9898043058686,
              40.764126783318105
            ],
            [
              -73.98989177492511,
              40.76416773410399
            ],
            [
              -73.9898769673316,
              40.764227049604486
            ],
            [
              -73.98993651411541,
              40.76428588618976
            ]
          ]
        ]
      },
      "properties": {
        "type": "manual_vegetation",
        "name": "Vegetation 17",
        "source": "manual",
        "confidence": 1,
        "createdAt": 1785230836360,
        "updatedAt": 1785230836360,
        "areaM2": 553.76953125
      }
    },
    {
      "type": "Feature",
      "id": "veg-1785230847294-1i3471",
      "geometry": {
        "type": "Polygon",
        "coordinates": [
          [
            [
              -73.98952581882791,
              40.764075916930295
            ],
            [
              -73.98943396405181,
              40.764046156388076
            ],
            [
              -73.98936538994485,
              40.76402665598985
            ],
            [
              -73.98932852062286,
              40.76407184749388
            ],
            [
              -73.98943952782255,
              40.764127082713586
            ],
            [
              -73.98947831483838,
              40.764168194704304
            ],
            [
              -73.98948989250596,
              40.764070399846766
            ],
            [
              -73.98952581882791,
              40.764075916930295
            ]
          ]
        ]
      },
      "properties": {
        "type": "manual_vegetation",
        "name": "Vegetation 18",
        "source": "manual",
        "confidence": 1,
        "createdAt": 1785230847294,
        "updatedAt": 1785230847294,
        "areaM2": 101.91796875
      }
    },
    {
      "type": "Feature",
      "id": "veg-1785230868846-ayc9wg",
      "geometry": {
        "type": "Polygon",
        "coordinates": [
          [
            [
              -73.98932983189097,
              40.765619307000584
            ],
            [
              -73.98909991890548,
              40.76548380361661
            ],
            [
              -73.98889975640796,
              40.76537859663626
            ],
            [
              -73.9887235324439,
              40.765343302719735
            ],
            [
              -73.98855838381087,
              40.76529871422228
            ],
            [
              -73.98834743228662,
              40.765263025574434
            ],
            [
              -73.98826659180668,
              40.76529728697485
            ],
            [
              -73.98834691829013,
              40.76535923827547
            ],
            [
              -73.9884980450748,
              40.76544034233593
            ],
            [
              -73.98866190284697,
              40.76550920599346
            ],
            [
              -73.98875109613624,
              40.76554507718284
            ],
            [
              -73.98900302151449,
              40.765638348073445
            ],
            [
              -73.98919978580211,
              40.76570358411337
            ],
            [
              -73.98930393301977,
              40.76563296555005
            ],
            [
              -73.98932983189097,
              40.765619307000584
            ]
          ]
        ]
      },
      "properties": {
        "type": "manual_vegetation",
        "name": "Vegetation 19",
        "source": "manual",
        "confidence": 1,
        "createdAt": 1785230868846,
        "updatedAt": 1785230868846,
        "areaM2": 1566.140625
      }
    },
    {
      "type": "Feature",
      "id": "veg-1785230880072-fsilja",
      "geometry": {
        "type": "Polygon",
        "coordinates": [
          [
            [
              -73.9901585730303,
              40.76519408651863
            ],
            [
              -73.99004405745734,
              40.765285933620696
            ],
            [
              -73.98995691937647,
              40.76517735230012
            ],
            [
              -73.98970634258032,
              40.76510446390518
            ],
            [
              -73.98977377670353,
              40.76504188390058
            ],
            [
              -73.98981553139966,
              40.76502867993651
            ],
            [
              -73.98996792987063,
              40.76509486508468
            ],
            [
              -73.99012118910112,
              40.76515144879761
            ],
            [
              -73.99011245579696,
              40.76522296256856
            ],
            [
              -73.9901585730303,
              40.76519408651863
            ]
          ]
        ]
      },
      "properties": {
        "type": "manual_vegetation",
        "name": "Vegetation 20",
        "source": "manual",
        "confidence": 1,
        "createdAt": 1785230880072,
        "updatedAt": 1785230880072,
        "areaM2": 378.24609375
      }
    },
    {
      "type": "Feature",
      "id": "veg-1785230906484-0zptzp",
      "geometry": {
        "type": "Polygon",
        "coordinates": [
          [
            [
              -73.99060261540438,
              40.76608439017574
            ],
            [
              -73.990438084708,
              40.766311671525564
            ],
            [
              -73.99033590439187,
              40.76638163807185
            ],
            [
              -73.99022332665903,
              40.76631012394551
            ],
            [
              -73.990207413439,
              40.76627839012045
            ],
            [
              -73.9900305189969,
              40.766199428864184
            ],
            [
              -73.99000203117522,
              40.76615018273824
            ],
            [
              -73.99003020287691,
              40.76610935030701
            ],
            [
              -73.99017854832758,
              40.766169450434056
            ],
            [
              -73.99031524057771,
              40.76620819627603
            ],
            [
              -73.99038569173914,
              40.76611965974454
            ],
            [
              -73.99037210862313,
              40.76605031732565
            ],
            [
              -73.99019394712839,
              40.76597365111735
            ],
            [
              -73.99011335794303,
              40.765927730659044
            ],
            [
              -73.99019084037317,
              40.76581753687545
            ],
            [
              -73.99021752292782,
              40.765756894389845
            ],
            [
              -73.99029760715915,
              40.765740020111956
            ],
            [
              -73.99047060860688,
              40.76581944456812
            ],
            [
              -73.99052103683093,
              40.765850363713824
            ],
            [
              -73.99038964166006,
              40.76596393913655
            ],
            [
              -73.99049165312991,
              40.766019320203114
            ],
            [
              -73.9905955161019,
              40.76609301304368
            ],
            [
              -73.99053415123095,
              40.766206704331765
            ],
            [
              -73.99060261540438,
              40.76608439017574
            ]
          ]
        ]
      },
      "properties": {
        "type": "manual_vegetation",
        "name": "Vegetation 21",
        "source": "manual",
        "confidence": 1,
        "createdAt": 1785230906484,
        "updatedAt": 1785230906484,
        "areaM2": 1507.908203125
      }
    },
    {
      "type": "Feature",
      "id": "veg-1785230926906-qs9shr",
      "geometry": {
        "type": "Polygon",
        "coordinates": [
          [
            [
              -73.98892829677162,
              40.766031149508784
            ],
            [
              -73.988708381557,
              40.76593654465283
            ],
            [
              -73.98848669049592,
              40.76585269696781
            ],
            [
              -73.98826130274688,
              40.76573747078037
            ],
            [
              -73.98797252236778,
              40.765615423396014
            ],
            [
              -73.98776131578823,
              40.765534787685866
            ],
            [
              -73.9877191640824,
              40.76547094471735
            ],
            [
              -73.98783716016855,
              40.7653819942123
            ],
            [
              -73.98796186178181,
              40.765421061087494
            ],
            [
              -73.98809099573573,
              40.76550874943248
            ],
            [
              -73.98820606267094,
              40.76556679017317
            ],
            [
              -73.98839109944049,
              40.76562459786562
            ],
            [
              -73.98848509199406,
              40.76561214523864
            ],
            [
              -73.9886918258294,
              40.765708410923374
            ],
            [
              -73.98879335416088,
              40.76580909124572
            ],
            [
              -73.98886963669895,
              40.76588842072383
            ],
            [
              -73.9889795997498,
              40.765966723543215
            ],
            [
              -73.98892829677162,
              40.766031149508784
            ]
          ]
        ]
      },
      "properties": {
        "type": "manual_vegetation",
        "name": "Vegetation 22",
        "source": "manual",
        "confidence": 1,
        "createdAt": 1785230926906,
        "updatedAt": 1785230926906,
        "areaM2": 1991.763671875
      }
    },
    {
      "type": "Feature",
      "id": "veg-1785230967414-qbkvf2",
      "geometry": {
        "type": "Polygon",
        "coordinates": [
          [
            [
              -73.99351468508237,
              40.76390646056962
            ],
            [
              -73.99341496137255,
              40.76403979313426
            ],
            [
              -73.99341863290142,
              40.76411041831622
            ],
            [
              -73.99332227152132,
              40.76431566479521
            ],
            [
              -73.99317456824107,
              40.76439743966358
            ],
            [
              -73.992969419939,
              40.764314433300655
            ],
            [
              -73.99304681876869,
              40.76424304915051
            ],
            [
              -73.99314139556101,
              40.76409830182427
            ],
            [
              -73.99326352372628,
              40.76399908529355
            ],
            [
              -73.99334642518788,
              40.76386001469012
            ],
            [
              -73.99346158976687,
              40.763827483939984
            ],
            [
              -73.99351468508237,
              40.76390646056962
            ]
          ]
        ]
      },
      "properties": {
        "type": "manual_vegetation",
        "name": "Vegetation 23",
        "source": "manual",
        "confidence": 1,
        "createdAt": 1785230967414,
        "updatedAt": 1785230967414,
        "areaM2": 1224.7890625
      }
    },
    {
      "type": "Feature",
      "id": "veg-1785230994490-ljn4lj",
      "geometry": {
        "type": "Polygon",
        "coordinates": [
          [
            [
              -73.98943119367476,
              40.76218376044935
            ],
            [
              -73.9893268266917,
              40.762174389908495
            ],
            [
              -73.98917192014427,
              40.762284553833936
            ],
            [
              -73.9892030054809,
              40.76238648394634
            ],
            [
              -73.98931314050861,
              40.76237760285544
            ],
            [
              -73.98943791242796,
              40.76224987500085
            ],
            [
              -73.98943119367476,
              40.76218376044935
            ]
          ]
        ]
      },
      "properties": {
        "type": "manual_vegetation",
        "name": "Vegetation 24",
        "source": "manual",
        "confidence": 1,
        "createdAt": 1785230994490,
        "updatedAt": 1785230994490,
        "areaM2": 337.515625
      }
    },
    {
      "type": "Feature",
      "id": "veg-1785231006666-l4myok",
      "geometry": {
        "type": "Polygon",
        "coordinates": [
          [
            [
              -73.98969623059412,
              40.761648115188066
            ],
            [
              -73.98950310298808,
              40.76157584173904
            ],
            [
              -73.98936727088434,
              40.761486404210174
            ],
            [
              -73.98920518304075,
              40.76142939543514
            ],
            [
              -73.9890434959666,
              40.76155574590842
            ],
            [
              -73.9892631679971,
              40.76165115617762
            ],
            [
              -73.98959551529126,
              40.761728407190844
            ],
            [
              -73.98967053902784,
              40.7616070645444
            ],
            [
              -73.98969623059412,
              40.761648115188066
            ]
          ]
        ]
      },
      "properties": {
        "type": "manual_vegetation",
        "name": "Vegetation 25",
        "source": "manual",
        "confidence": 1,
        "createdAt": 1785231006666,
        "updatedAt": 1785231006666,
        "areaM2": 786.8671875
      }
    },
    {
      "type": "Feature",
      "id": "veg-1785231021914-n82dmk",
      "geometry": {
        "type": "Polygon",
        "coordinates": [
          [
            [
              -73.99027787467978,
              40.761050066366565
            ],
            [
              -73.99013275188534,
              40.76110707160279
            ],
            [
              -73.98999519724411,
              40.760903988073714
            ],
            [
              -73.98982504506452,
              40.76089839453255
            ],
            [
              -73.98963776000225,
              40.76089906548293
            ],
            [
              -73.98948127653995,
              40.76080907381053
            ],
            [
              -73.98940299795487,
              40.76084238815103
            ],
            [
              -73.98946783352997,
              40.76089940382977
            ],
            [
              -73.98976244136995,
              40.76096726302386
            ],
            [
              -73.98985606220884,
              40.761037141409375
            ],
            [
              -73.99011033493937,
              40.761154340333654
            ],
            [
              -73.99018364797575,
              40.76116500546712
            ],
            [
              -73.99027787467978,
              40.761050066366565
            ]
          ]
        ]
      },
      "properties": {
        "type": "manual_vegetation",
        "name": "Vegetation 26",
        "source": "manual",
        "confidence": 1,
        "createdAt": 1785231021914,
        "updatedAt": 1785231021914,
        "areaM2": 736.556640625
      }
    },
    {
      "type": "Feature",
      "id": "veg-1785231056806-sy0nw9",
      "geometry": {
        "type": "Polygon",
        "coordinates": [
          [
            [
              -73.98826013027526,
              40.763504158751935
            ],
            [
              -73.98828399131196,
              40.76360505395944
            ],
            [
              -73.98814272683003,
              40.76360464370001
            ],
            [
              -73.98797788031895,
              40.763552530368266
            ],
            [
              -73.98791765785269,
              40.76348152736065
            ],
            [
              -73.98799652123454,
              40.76345007203809
            ],
            [
              -73.98814557271567,
              40.763365824137836
            ],
            [
              -73.98824617892369,
              40.76332472601322
            ],
            [
              -73.98830261969543,
              40.76334905439233
            ],
            [
              -73.98828552531158,
              40.763398660112074
            ],
            [
              -73.98822368395639,
              40.7635217738168
            ],
            [
              -73.98825596279221,
              40.763589878903545
            ],
            [
              -73.98826013027526,
              40.763504158751935
            ]
          ]
        ]
      },
      "properties": {
        "type": "manual_vegetation",
        "name": "Vegetation 27",
        "source": "manual",
        "confidence": 1,
        "createdAt": 1785231056806,
        "updatedAt": 1785231056806,
        "areaM2": 582.533203125
      }
    }
  ]
}